ONEWEB-0220             
1 48232U 21031Y   23354.33676523  .00000182  00000+0  45546-3 0  9995
2 48232  87.8977 110.8253 0001919  98.2982 261.8365 13.14503072128878
ONEWEB-0165             
1 48233U 21031Z   23354.36530649 -.00000109  00000+0 -32915-3 0  9994
2 48233  87.8972 110.8278 0001802 104.4570 255.6760 13.14503308128833
ONEWEB-0199             
1 48234U 21031AA  23354.34944152 -.00000030  00000+0 -11633-3 0  9998
2 48234  87.8972 110.8022 0001700 101.6484 258.4837 13.14501198128731
ONEWEB-0203             
1 48235U 21031AB  23354.33992836  .00000110  00000+0  26134-3 0  9999
2 48235  87.8970 110.8053 0001607 121.0029 239.1259 13.14504587128741
ONEWEB-0197             
1 48236U 21031AC  23354.39146157 -.00000290  00000+0 -81686-3 0  9997
2 48236  87.8983 110.7991 0001445  95.9599 264.1696 13.14504215128669
ONEWEB-0194             
1 48237U 21031AD  23354.37005612 -.00000048  00000+0 -16371-3 0  9996
2 48237  87.8972 110.7958 0001564 120.4472 239.6812 13.14505470128837
ONEWEB-0193             
1 48238U 21031AE  23354.38592045  .00000223  00000+0  56684-3 0  9993
2 48238  87.8970 110.8007 0001779 110.1316 250.0005 13.14503331128782
ONEWEB-0191             
1 48239U 21031AF  23354.39702027  .00000261  00000+0  66873-3 0  9991
2 48239  87.8983 110.7877 0002964 121.5907 238.5512 13.14500793128648
